[{"OBJECT_NAME":"DONGPO 08","OBJECT_ID":"2022-167E","EPOCH":"2026-03-09T22:57:52.742880","MEAN_MOTION":15.31542505,"ECCENTRICITY":0.00092155,"INCLINATION":97.6764,"RA_OF_ASC_NODE":233.3854,"ARG_OF_PERICENTER":153.9158,"MEAN_ANOMALY":206.2548,"EPHEMERIS_TYPE":0,"CLASSIFICATION_TYPE":"U","NORAD_CAT_ID":54686,"ELEMENT_SET_NO":999,"REV_AT_EPOCH":18012,"BSTAR":0.0004734784,"MEAN_MOTION_DOT":0.0001437,"MEAN_MOTION_DDOT":0},{"OBJECT_NAME":"STARLINK-34456","OBJECT_ID":"2025-130B","EPOCH":"2026-03-09T11:36:34.534656","MEAN_MOTION":15.30207198,"ECCENTRICITY":0.00011631,"INCLINATION":53.1585,"RA_OF_ASC_NODE":89.3496,"ARG_OF_PERICENTER":76.3391,"MEAN_ANOMALY":283.774,"EPHEMERIS_TYPE":0,"CLASSIFICATION_TYPE":"U","NORAD_CAT_ID":64439,"ELEMENT_SET_NO":999,"REV_AT_EPOCH":4067,"BSTAR":0.0010273819,"MEAN_MOTION_DOT":0.00030199,"MEAN_MOTION_DDOT":0}]
